0 COSMOS 374 DEB
1 18517U 70089DD  13283.42816209  .00002565  00000-0  66763-3 0  6430
2 18517 062.4253 264.6860 0515466 206.3576 242.1353 13.93881032218890
0 COSMOS 374 DEB
1 18517U 70089DD  13285.58703970  .00002363  00000-0  61883-3 0  6455
2 18517 062.4250 258.4260 0515098 206.8402 275.3287 13.93885951219198
0 COSMOS 374 DEB
1 18517U 70089DD  13287.52299917  .00002191  00000-0  57716-3 0  6462
2 18517 062.4253 252.8119 0514799 207.2736 269.9662 13.93894561219467
0 COSMOS 374 DEB
1 18517U 70089DD  13288.52754750  .00002972  00000-0  76983-3 0  6479
2 18517 062.4256 249.8986 0514682 207.4985 270.8168 13.93902306219602
0 COSMOS 374 DEB
1 18517U 70089DD  13289.53252464  .00002847  00000-0  73947-3 0  6485
2 18517 062.4261 246.9841 0514535 207.7237 273.8422 13.93904302219745
0 COSMOS 374 DEB
1 18517U 70089DD  13290.53702782  .00002874  00000-0  74684-3 0  6490
2 18517 062.4262 244.0719 0514337 207.9491 274.4953 13.93909436219887
0 COSMOS 374 DEB
1 18517U 70089DD  13292.47290659  .00002225  00000-0  58717-3 0  6501
2 18517 062.4263 238.4589 0514080 208.3809 268.9031 13.93918643220150
0 COSMOS 374 DEB
1 18517U 70089DD  13293.47755907  .00002917  00000-0  75835-3 0  6513
2 18517 062.4263 235.5460 0513944 208.6076 270.3645 13.93921532220297
0 COSMOS 374 DEB
1 18517U 70089DD  13294.82308248  .00003480  00000-0  89805-3 0  6524
2 18517 062.4261 231.6447 0513781 208.9099 182.3725 13.93928366220488
0 COSMOS 374 DEB
1 18517U 70089DD  13296.13125100  .00003477  00000-0  89774-3 0  6536
2 18517 062.4259 227.8516 0513632 209.2065 266.9542 13.93934880220665
